{"type":"FeatureCollection","features":[{"type":"Feature","id":2,"geometry":{"type":"Polygon","coordinates":[[[125.332192,43.908146],[125.332145,43.903482],[125.332143,43.903244],[125.332199,43.903033],[125.332225,43.902906],[125.332261,43.902743],[125.332323,43.902565],[125.332387,43.90241],[125.332484,43.902233],[125.332591,43.902057],[125.333171,43.901356],[125.334254,43.900047],[125.335162,43.898904],[125.335257,43.898782],[125.336018,43.89772],[125.336973,43.896203],[125.338939,43.893258],[125.339008,43.893136],[125.339683,43.891999],[125.341057,43.892458],[125.342145,43.892837],[125.343387,43.893281],[125.34559,43.894021],[125.345911,43.894173],[125.347777,43.894834],[125.347909,43.894919],[125.348022,43.895014],[125.348165,43.895144],[125.348143,43.895194],[125.348134,43.895284],[125.348147,43.895378],[125.348177,43.895464],[125.348295,43.895609],[125.348385,43.895682],[125.348492,43.895736],[125.34865,43.895785],[125.349045,43.895897],[125.349688,43.896293],[125.3502,43.896569],[125.350304,43.896604],[125.350414,43.896637],[125.351067,43.897008],[125.349164,43.898829],[125.348286,43.89966],[125.346899,43.90102],[125.346672,43.901281],[125.346542,43.901468],[125.346441,43.901651],[125.346069,43.902386],[125.345932,43.902827],[125.345602,43.904823],[125.345546,43.905081],[125.345533,43.905146],[125.345482,43.905311],[125.345487,43.905357],[125.345581,43.905489],[125.345605,43.905577],[125.345603,43.905684],[125.345568,43.905814],[125.34551,43.906041],[125.345186,43.906585],[125.344666,43.907082],[125.344082,43.907525],[125.343785,43.90772],[125.34329,43.907954],[125.342735,43.908125],[125.342283,43.908211],[125.341847,43.908268],[125.341197,43.908269],[125.3378,43.908211],[125.332192,43.908146]]]},"properties":{}}],"crs":{"type":"name","properties":{"name":"urn:ogc:def:crs:OGC:1.3:CRS84"}}}